[
    {
        "Altitude(m)": 567684.4235204742,
        "Argument of Periapsis(deg)": 0.013245982221427002,
        "Eccentricity": 0.0,
        "Inclination(deg)": 53.0,
        "Latitude(deg)": -42.81844130557164,
        "Longitude(deg)": -155.55879605933285,
        "Mean Anomaly(deg)": -57.99861426484486,
        "RAAN(deg)": 349.9802867370561,
        "Satellite Name": "Starlink Shell 1 1557",
        "Satellite Number": 1557,
        "Semi-Major Axis(m)": 6931778.249405717,
        "Time(s)": 380
    },
    {
        "Altitude(m)": 567534.8644492665,
        "Argument of Periapsis(deg)": 0.013594560700938237,
        "Eccentricity": 0.0,
        "Inclination(deg)": 53.0,
        "Latitude(deg)": -42.45637944887933,
        "Longitude(deg)": -154.90831013636998,
        "Mean Anomaly(deg)": -57.37178306128816,
        "RAAN(deg)": 349.9797679669786,
        "Satellite Name": "Starlink Shell 1 1557",
        "Satellite Number": 1557,
        "Semi-Major Axis(m)": 6931778.249405717,
        "Time(s)": 390
    },
    {
        "Altitude(m)": 567383.5294456555,
        "Argument of Periapsis(deg)": 0.013943139180449475,
        "Eccentricity": 0.0,
        "Inclination(deg)": 53.0,
        "Latitude(deg)": -42.09016035335659,
        "Longitude(deg)": -154.26577221552907,
        "Mean Anomaly(deg)": -56.744951857731415,
        "RAAN(deg)": 349.9792491969011,
        "Satellite Name": "Starlink Shell 1 1557",
        "Satellite Number": 1557,
        "Semi-Major Axis(m)": 6931778.249405717,
        "Time(s)": 400
    },
    {
        "Altitude(m)": 567230.4777653501,
        "Argument of Periapsis(deg)": 0.014291717659960712,
        "Eccentricity": 0.0,
        "Inclination(deg)": 53.0,
        "Latitude(deg)": -41.71988220286285,
        "Longitude(deg)": -153.63107735470467,
        "Mean Anomaly(deg)": -56.118120654174675,
        "RAAN(deg)": 349.97873042682363,
        "Satellite Name": "Starlink Shell 1 1557",
        "Satellite Number": 1557,
        "Semi-Major Axis(m)": 6931778.249405717,
        "Time(s)": 410
    },
    {
        "Altitude(m)": 567075.7692825454,
        "Argument of Periapsis(deg)": 0.014640296139471948,
        "Eccentricity": 0.0,
        "Inclination(deg)": 53.0,
        "Latitude(deg)": -41.345641356442854,
        "Longitude(deg)": -153.00411844270334,
        "Mean Anomaly(deg)": -55.49128945061803,
        "RAAN(deg)": 349.97821165674617,
        "Satellite Name": "Starlink Shell 1 1557",
        "Satellite Number": 1557,
        "Semi-Major Axis(m)": 6931778.249405717,
        "Time(s)": 420
    },
    {
        "Altitude(m)": 566919.4644634429,
        "Argument of Periapsis(deg)": 0.014988874618983185,
        "Eccentricity": 0.0,
        "Inclination(deg)": 53.0,
        "Latitude(deg)": -40.96753234195161,
        "Longitude(deg)": -152.38478601593158,
        "Mean Anomaly(deg)": -54.86445824706123,
        "RAAN(deg)": 349.9776928866687,
        "Satellite Name": "Starlink Shell 1 1557",
        "Satellite Number": 1557,
        "Semi-Major Axis(m)": 6931778.249405717,
        "Time(s)": 430
    },
    {
        "Altitude(m)": 566761.6243395304,
        "Argument of Periapsis(deg)": 0.015337453098494424,
        "Eccentricity": 0.0,
        "Inclination(deg)": 53.0,
        "Latitude(deg)": -40.58564785408012,
        "Longitude(deg)": -151.7729680573036,
        "Mean Anomaly(deg)": -54.23762704350448,
        "RAAN(deg)": 349.97717411659124,
        "Satellite Name": "Starlink Shell 1 1557",
        "Satellite Number": 1557,
        "Semi-Major Axis(m)": 6931778.249405717,
        "Time(s)": 440
    },
    {
        "Altitude(m)": 566602.3104805531,
        "Argument of Periapsis(deg)": 0.01568603157800566,
        "Eccentricity": 0.0,
        "Inclination(deg)": 53.0,
        "Latitude(deg)": -40.20007875642837,
        "Longitude(deg)": -151.16855129057245,
        "Mean Anomaly(deg)": -53.61079583994784,
        "RAAN(deg)": 349.9766553465137,
        "Satellite Name": "Starlink Shell 1 1557",
        "Satellite Number": 1557,
        "Semi-Major Axis(m)": 6931778.249405717,
        "Time(s)": 450
    },
    {
        "Altitude(m)": 566441.5849672966,
        "Argument of Periapsis(deg)": 0.0160346100575169,
        "Eccentricity": 0.0,
        "Inclination(deg)": 53.0,
        "Latitude(deg)": -39.81091408729701,
        "Longitude(deg)": -150.57142094473633,
        "Mean Anomaly(deg)": -52.98396463639114,
        "RAAN(deg)": 349.97613657643626,
        "Satellite Name": "Starlink Shell 1 1557",
        "Satellite Number": 1557,
        "Semi-Major Axis(m)": 6931778.249405717,
        "Time(s)": 460
    },
    {
        "Altitude(m)": 566279.5103640299,
        "Argument of Periapsis(deg)": 0.016383188537028134,
        "Eccentricity": 0.0,
        "Inclination(deg)": 53.0,
        "Latitude(deg)": -39.418241068874636,
        "Longitude(deg)": -149.98146050184187,
        "Mean Anomaly(deg)": -52.357133432834345,
        "RAAN(deg)": 349.9756178063588,
        "Satellite Name": "Starlink Shell 1 1557",
        "Satellite Number": 1557,
        "Semi-Major Axis(m)": 6931778.249405717,
        "Time(s)": 470
    },
    {
        "Altitude(m)": 566116.1496908154,
        "Argument of Periapsis(deg)": 0.01673176701653937,
        "Eccentricity": 0.0,
        "Inclination(deg)": 53.0,
        "Latitude(deg)": -39.02214511951417,
        "Longitude(deg)": -149.39855294155294,
        "Mean Anomaly(deg)": -51.73030222927765,
        "RAAN(deg)": 349.97509903628134,
        "Satellite Name": "Starlink Shell 1 1557",
        "Satellite Number": 1557,
        "Semi-Major Axis(m)": 6931778.249405717,
        "Time(s)": 480
    },
    {
        "Altitude(m)": 565951.5663955173,
        "Argument of Periapsis(deg)": 0.017080345496050607,
        "Eccentricity": 0.0,
        "Inclination(deg)": 53.0,
        "Latitude(deg)": -38.62270986881307,
        "Longitude(deg)": -148.82258045726098,
        "Mean Anomaly(deg)": -51.10347102572095,
        "RAAN(deg)": 349.9745802662038,
        "Satellite Name": "Starlink Shell 1 1557",
        "Satellite Number": 1557,
        "Semi-Major Axis(m)": 6931778.249405717,
        "Time(s)": 490
    },
    {
        "Altitude(m)": 565785.8243256686,
        "Argument of Periapsis(deg)": 0.017428923975561842,
        "Eccentricity": 0.0,
        "Inclination(deg)": 53.0,
        "Latitude(deg)": -38.2200171752236,
        "Longitude(deg)": -148.25342415717103,
        "Mean Anomaly(deg)": -50.476639822164266,
        "RAAN(deg)": 349.97406149612635,
        "Satellite Name": "Starlink Shell 1 1557",
        "Satellite Number": 1557,
        "Semi-Major Axis(m)": 6931778.249405717,
        "Time(s)": 500
    },
    {
        "Altitude(m)": 565618.9877000891,
        "Argument of Periapsis(deg)": 0.01777750245507308,
        "Eccentricity": 0.0,
        "Inclination(deg)": 53.0,
        "Latitude(deg)": -37.81414714593159,
        "Longitude(deg)": -147.69096526380818,
        "Mean Anomaly(deg)": -49.84980861860757,
        "RAAN(deg)": 349.97354272604895,
        "Satellite Name": "Starlink Shell 1 1557",
        "Satellite Number": 1557,
        "Semi-Major Axis(m)": 6931778.249405717,
        "Time(s)": 510
    },
    {
        "Altitude(m)": 565451.121080357,
        "Argument of Periapsis(deg)": 0.018126080934584315,
        "Eccentricity": 0.0,
        "Inclination(deg)": 53.0,
        "Latitude(deg)": -37.40517815876637,
        "Longitude(deg)": -147.1350847867861,
        "Mean Anomaly(deg)": -49.22297741505082,
        "RAAN(deg)": 349.9730239559714,
        "Satellite Name": "Starlink Shell 1 1557",
        "Satellite Number": 1557,
        "Semi-Major Axis(m)": 6931778.249405717,
        "Time(s)": 520
    },
    {
        "Altitude(m)": 565282.289342099,
        "Argument of Periapsis(deg)": 0.018474659414095554,
        "Eccentricity": 0.0,
        "Inclination(deg)": 53.0,
        "Latitude(deg)": -36.99318688591268,
        "Longitude(deg)": -146.58566318230996,
        "Mean Anomaly(deg)": -48.59614621149417,
        "RAAN(deg)": 349.97250518589397,
        "Satellite Name": "Starlink Shell 1 1557",
        "Satellite Number": 1557,
        "Semi-Major Axis(m)": 6931778.249405717,
        "Time(s)": 530
    },
    {
        "Altitude(m)": 565112.557646122,
        "Argument of Periapsis(deg)": 0.018823237893606792,
        "Eccentricity": 0.0,
        "Inclination(deg)": 53.0,
        "Latitude(deg)": -36.57824831920806,
        "Longitude(deg)": -146.0425815128842,
        "Mean Anomaly(deg)": -47.96931500793737,
        "RAAN(deg)": 349.97198641581645,
        "Satellite Name": "Starlink Shell 1 1557",
        "Satellite Number": 1557,
        "Semi-Major Axis(m)": 6931778.249405717,
        "Time(s)": 540
    },
    {
        "Altitude(m)": 564941.9914094043,
        "Argument of Periapsis(deg)": 0.019171816373118027,
        "Eccentricity": 0.0,
        "Inclination(deg)": 53.0,
        "Latitude(deg)": -36.16043579683413,
        "Longitude(deg)": -145.50572108208135,
        "Mean Anomaly(deg)": -47.34248380438062,
        "RAAN(deg)": 349.971467645739,
        "Satellite Name": "Starlink Shell 1 1557",
        "Satellite Number": 1557,
        "Semi-Major Axis(m)": 6931778.249405717,
        "Time(s)": 550
    },
    {
        "Altitude(m)": 564770.6562759464,
        "Argument of Periapsis(deg)": 0.019520394852629266,
        "Eccentricity": 0.0,
        "Inclination(deg)": 53.0,
        "Latitude(deg)": -35.73982103121227,
        "Longitude(deg)": -144.9749630578344,
        "Mean Anomaly(deg)": -46.71565260082399,
        "RAAN(deg)": 349.9709488756616,
        "Satellite Name": "Starlink Shell 1 1557",
        "Satellite Number": 1557,
        "Semi-Major Axis(m)": 6931778.249405717,
        "Time(s)": 560
    }
]